start=new Date('2022-04-30T00:00:00.000Z').valueOf();
sats=[{"RA_OF_ASC_NODE":"50.7487","OBJECT_TYPE":"PAYLOAD","TIME_SYSTEM":"UTC","EPHEMERIS_TYPE":"0","REV_AT_EPOCH":"5512","ELEMENT_SET_NO":"999","MEAN_ANOMALY":"312.6017","GP_ID":"202285547","SEMIMAJOR_AXIS":"6925.356","PERIAPSIS":"546.119","ARG_OF_PERICENTER":"47.5106","CLASSIFICATION_TYPE":"U","OBJECT_NAME":"STARLINK-2496","LAUNCH_DATE":"2021-05-09","MEAN_ELEMENT_THEORY":"SGP4","MEAN_MOTION_DDOT":"0.0000000000000","PERIOD":"95.592","TLE_LINE2":"2 48486  53.0571  50.7487 0001592  47.5106 312.6017 15.06397446 55122","SITE":"AFETR","FILE":"3421847","BSTAR":"-0.00018931000000","EPOCH":"2022-04-29T19:49:47.373600","ECCENTRICITY":"0.00015920","REF_FRAME":"TEME","OBJECT_ID":"2021-040BL","COUNTRY_CODE":"US","TLE_LINE1":"1 48486U 21040BL  22119.82624275 -.00003100  00000-0 -18931-3 0  9999","MEAN_MOTION_DOT":"-0.00003100","APOAPSIS":"548.324","RCS_SIZE":"LARGE","CENTER_NAME":"EARTH","DECAY_DATE":null,"NORAD_CAT_ID":"48486","MEAN_MOTION":"15.06397446","INCLINATION":"53.0571"},{"EPHEMERIS_TYPE":"0","TIME_SYSTEM":"UTC","REV_AT_EPOCH":"5513","ELEMENT_SET_NO":"999","MEAN_ANOMALY":"310.1076","OBJECT_TYPE":"PAYLOAD","RA_OF_ASC_NODE":"50.7292","CLASSIFICATION_TYPE":"U","LAUNCH_DATE":"2021-05-09","OBJECT_NAME":"STARLINK-2494","MEAN_ELEMENT_THEORY":"SGP4","SEMIMAJOR_AXIS":"6925.356","GP_ID":"202285517","PERIAPSIS":"546.005","ARG_OF_PERICENTER":"50.0067","EPOCH":"2022-04-29T19:55:05.722176","BSTAR":"-0.00015044000000","ECCENTRICITY":"0.00017560","REF_FRAME":"TEME","OBJECT_ID":"2021-040BM","COUNTRY_CODE":"US","MEAN_MOTION_DDOT":"0.0000000000000","PERIOD":"95.592","TLE_LINE2":"2 48487  53.0533  50.7292 0001756  50.0067 310.1076 15.06397631 55137","SITE":"AFETR","FILE":"3421845","DECAY_DATE":null,"NORAD_CAT_ID":"48487","MEAN_MOTION":"15.06397631","INCLINATION":"53.0533","TLE_LINE1":"1 48487U 21040BM  22119.82992734 -.00002522  00000-0 -15044-3 0  9997","MEAN_MOTION_DOT":"-0.00002522","APOAPSIS":"548.437","RCS_SIZE":"LARGE","CENTER_NAME":"EARTH"},{"MEAN_ELEMENT_THEORY":"SGP4","OBJECT_NAME":"STARLINK-2063","LAUNCH_DATE":"2021-05-15","CLASSIFICATION_TYPE":"U","SEMIMAJOR_AXIS":"6925.353","GP_ID":"202310788","ARG_OF_PERICENTER":"86.0813","PERIAPSIS":"546.311","REV_AT_EPOCH":"5271","TIME_SYSTEM":"UTC","EPHEMERIS_TYPE":"0","MEAN_ANOMALY":"274.0325","ELEMENT_SET_NO":"999","RA_OF_ASC_NODE":"340.5404","OBJECT_TYPE":"PAYLOAD","NORAD_CAT_ID":"48553","DECAY_DATE":null,"INCLINATION":"53.0540","MEAN_MOTION":"15.06398582","MEAN_MOTION_DOT":"0.00000113","TLE_LINE1":"1 48553U 21041A   22119.87324691  .00000113  00000-0  26452-4 0  9996","CENTER_NAME":"EARTH","RCS_SIZE":"LARGE","APOAPSIS":"548.125","REF_FRAME":"TEME","ECCENTRICITY":"0.00013100","BSTAR":"0.00002645200000","EPOCH":"2022-04-29T20:57:28.533024","COUNTRY_CODE":"US","OBJECT_ID":"2021-041A","TLE_LINE2":"2 48553  53.0540 340.5404 0001310  86.0813 274.0325 15.06398582 52710","SITE":"AFETR","PERIOD":"95.592","MEAN_MOTION_DDOT":"0.0000000000000","FILE":"3421985"},{"PERIAPSIS":"546.215","ARG_OF_PERICENTER":"98.6427","GP_ID":"202283590","SEMIMAJOR_AXIS":"6925.361","CLASSIFICATION_TYPE":"U","LAUNCH_DATE":"2021-05-15","OBJECT_NAME":"STARLINK-2139","MEAN_ELEMENT_THEORY":"SGP4","OBJECT_TYPE":"PAYLOAD","RA_OF_ASC_NODE":"340.5046","ELEMENT_SET_NO":"999","MEAN_ANOMALY":"261.4728","TIME_SYSTEM":"UTC","EPHEMERIS_TYPE":"0","REV_AT_EPOCH":"5311","APOAPSIS":"548.238","RCS_SIZE":"LARGE","CENTER_NAME":"EARTH","TLE_LINE1":"1 48554U 21041B   22119.88061754 -.00000413  00000-0 -88583-5 0  9995","MEAN_MOTION_DOT":"-0.00000413","MEAN_MOTION":"15.06395779","INCLINATION":"53.0556","DECAY_DATE":null,"NORAD_CAT_ID":"48554","FILE":"3421771","MEAN_MOTION_DDOT":"0.0000000000000","PERIOD":"95.592","TLE_LINE2":"2 48554  53.0556 340.5046 0001461  98.6427 261.4728 15.06395779 53114","SITE":"AFETR","OBJECT_ID":"2021-041B","COUNTRY_CODE":"US","BSTAR":"-0.00000885830000","EPOCH":"2022-04-29T21:08:05.355456","ECCENTRICITY":"0.00014610","REF_FRAME":"TEME"},{"DECAY_DATE":null,"NORAD_CAT_ID":"48555","MEAN_MOTION":"15.06395194","INCLINATION":"53.0550","MEAN_MOTION_DOT":"-0.00002662","TLE_LINE1":"1 48555U 21041C   22119.90917879 -.00002662  00000-0 -15991-3 0  9996","APOAPSIS":"548.395","CENTER_NAME":"EARTH","RCS_SIZE":"LARGE","EPOCH":"2022-04-29T21:49:13.047456","BSTAR":"-0.00015991000000","REF_FRAME":"TEME","ECCENTRICITY":"0.00016840","COUNTRY_CODE":"US","OBJECT_ID":"2021-041C","MEAN_MOTION_DDOT":"0.0000000000000","TLE_LINE2":"2 48555  53.0550 350.3751 0001684  71.3931 288.7241 15.06395194 52578","SITE":"AFETR","PERIOD":"95.592","FILE":"3421985","CLASSIFICATION_TYPE":"U","MEAN_ELEMENT_THEORY":"SGP4","OBJECT_NAME":"STARLINK-2145","LAUNCH_DATE":"2021-05-15","SEMIMAJOR_AXIS":"6925.363","GP_ID":"202309294","PERIAPSIS":"546.062","ARG_OF_PERICENTER":"71.3931","TIME_SYSTEM":"UTC","EPHEMERIS_TYPE":"0","REV_AT_EPOCH":"5257","ELEMENT_SET_NO":"999","MEAN_ANOMALY":"288.7241","RA_OF_ASC_NODE":"350.3751","OBJECT_TYPE":"PAYLOAD"},{"OBJECT_TYPE":"PAYLOAD","RA_OF_ASC_NODE":"350.4284","MEAN_ANOMALY":"293.5327","ELEMENT_SET_NO":"999","REV_AT_EPOCH":"5257","EPHEMERIS_TYPE":"0","TIME_SYSTEM":"UTC","ARG_OF_PERICENTER":"66.5827","PERIAPSIS":"546.127","GP_ID":"202309544","SEMIMAJOR_AXIS":"6925.346","MEAN_ELEMENT_THEORY":"SGP4","LAUNCH_DATE":"2021-05-15","OBJECT_NAME":"STARLINK-2151","CLASSIFICATION_TYPE":"U","FILE":"3421985","SITE":"AFETR","TLE_LINE2":"2 48556  53.0553 350.4284 0001565  66.5827 293.5327 15.06400830 52575","PERIOD":"95.592","MEAN_MOTION_DDOT":"0.0000000000000","COUNTRY_CODE":"US","OBJECT_ID":"2021-041D","REF_FRAME":"TEME","ECCENTRICITY":"0.00015650","EPOCH":"2022-04-29T21:33:18.279072","BSTAR":"0.00054014000000","RCS_SIZE":"LARGE","CENTER_NAME":"EARTH","APOAPSIS":"548.295","MEAN_MOTION_DOT":"0.00007773","TLE_LINE1":"1 48556U 21041D   22119.89812823  .00007773  00000-0  54014-3 0  9993","INCLINATION":"53.0553","MEAN_MOTION":"15.06400830","DECAY_DATE":null,"NORAD_CAT_ID":"48556"},{"SEMIMAJOR_AXIS":"6925.338","GP_ID":"202310295","ARG_OF_PERICENTER":"79.4724","PERIAPSIS":"546.226","MEAN_ELEMENT_THEORY":"SGP4","OBJECT_NAME":"STARLINK-2155","LAUNCH_DATE":"2021-05-15","CLASSIFICATION_TYPE":"U","RA_OF_ASC_NODE":"340.7086","OBJECT_TYPE":"PAYLOAD","REV_AT_EPOCH":"5270","EPHEMERIS_TYPE":"0","TIME_SYSTEM":"UTC","MEAN_ANOMALY":"280.6424","ELEMENT_SET_NO":"999","MEAN_MOTION_DOT":"0.00004247","TLE_LINE1":"1 48557U 21041E   22119.83638625  .00004247  00000-0  30379-3 0  9995","CENTER_NAME":"EARTH","RCS_SIZE":"LARGE","APOAPSIS":"548.180","DECAY_DATE":null,"NORAD_CAT_ID":"48557","INCLINATION":"53.0539","MEAN_MOTION":"15.06403399","SITE":"AFETR","TLE_LINE2":"2 48557  53.0539 340.7086 0001411  79.4724 280.6424 15.06403399 52704","PERIOD":"95.592","MEAN_MOTION_DDOT":"0.0000000000000","FILE":"3421985","REF_FRAME":"TEME","ECCENTRICITY":"0.00014110","BSTAR":"0.00030379000000","EPOCH":"2022-04-29T20:04:23.772000","COUNTRY_CODE":"US","OBJECT_ID":"2021-041E"},{"MEAN_MOTION":"15.06390518","INCLINATION":"53.0562","DECAY_DATE":null,"NORAD_CAT_ID":"48558","APOAPSIS":"548.158","RCS_SIZE":"LARGE","CENTER_NAME":"EARTH","MEAN_MOTION_DOT":"-0.00001213","TLE_LINE1":"1 48558U 21041F   22119.83270332 -.00001213  00000-0 -62541-4 0  9992","COUNTRY_CODE":"US","OBJECT_ID":"2021-041F","EPOCH":"2022-04-29T19:59:05.566848","BSTAR":"-0.00006254100000","REF_FRAME":"TEME","ECCENTRICITY":"0.00013220","FILE":"3421793","MEAN_MOTION_DDOT":"0.0000000000000","TLE_LINE2":"2 48558  53.0562 340.7163 0001322  84.5934 275.5206 15.06390518 53102","SITE":"AFETR","PERIOD":"95.593","CLASSIFICATION_TYPE":"U","MEAN_ELEMENT_THEORY":"SGP4","OBJECT_NAME":"STARLINK-2166","LAUNCH_DATE":"2021-05-15","PERIAPSIS":"546.327","ARG_OF_PERICENTER":"84.5934","GP_ID":"202284361","SEMIMAJOR_AXIS":"6925.378","ELEMENT_SET_NO":"999","MEAN_ANOMALY":"275.5206","TIME_SYSTEM":"UTC","EPHEMERIS_TYPE":"0","REV_AT_EPOCH":"5310","RA_OF_ASC_NODE":"340.7163","OBJECT_TYPE":"PAYLOAD"},{"REV_AT_EPOCH":"5315","EPHEMERIS_TYPE":"0","TIME_SYSTEM":"UTC","MEAN_ANOMALY":"294.4051","ELEMENT_SET_NO":"999","OBJECT_TYPE":"PAYLOAD","RA_OF_ASC_NODE":"340.5426","OBJECT_NAME":"STARLINK-2167","LAUNCH_DATE":"2021-05-15","MEAN_ELEMENT_THEORY":"SGP4","CLASSIFICATION_TYPE":"U","SEMIMAJOR_AXIS":"6925.352","GP_ID":"202284857","ARG_OF_PERICENTER":"65.7101","PERIAPSIS":"546.135","ECCENTRICITY":"0.00015630","REF_FRAME":"TEME","BSTAR":"-0.00004146400000","EPOCH":"2022-04-29T20:50:47.883264","OBJECT_ID":"2021-041G","COUNTRY_CODE":"US","PERIOD":"95.592","SITE":"AFETR","TLE_LINE2":"2 48559  53.0553 340.5426 0001563  65.7101 294.4051 15.06398801 53153","MEAN_MOTION_DDOT":"0.0000000000000","FILE":"3421793","DECAY_DATE":null,"NORAD_CAT_ID":"48559","INCLINATION":"53.0553","MEAN_MOTION":"15.06398801","TLE_LINE1":"1 48559U 21041G   22119.86860976 -.00000899  00000-0 -41464-4 0  9995","MEAN_MOTION_DOT":"-0.00000899","CENTER_NAME":"EARTH","RCS_SIZE":"LARGE","APOAPSIS":"548.300"},{"MEAN_MOTION_DDOT":"0.0000000000000","SITE":"AFETR","TLE_LINE2":"2 48561  53.0526 310.3395 0001579  88.9124 237.0668 15.06353957  3598","PERIOD":"95.595","FILE":"3421985","EPOCH":"2022-04-29T22:00:00.999936","BSTAR":"0.00323220000000","REF_FRAME":"TEME","ECCENTRICITY":"0.00015790","COUNTRY_CODE":"US","OBJECT_ID":"2021-041J","MEAN_MOTION_DOT":"0.00048132","TLE_LINE1":"1 48561U 21041J   22119.91667824  .00048132  00000-0  32322-2 0  9992","APOAPSIS":"548.448","CENTER_NAME":"EARTH","RCS_SIZE":"LARGE","NORAD_CAT_ID":"48561","DECAY_DATE":null,"MEAN_MOTION":"15.06353957","INCLINATION":"53.0526","OBJECT_TYPE":"PAYLOAD","RA_OF_ASC_NODE":"310.3395","TIME_SYSTEM":"UTC","EPHEMERIS_TYPE":"0","REV_AT_EPOCH":"359","ELEMENT_SET_NO":"999","MEAN_ANOMALY":"237.0668","SEMIMAJOR_AXIS":"6925.490","GP_ID":"202310038","PERIAPSIS":"546.261","ARG_OF_PERICENTER":"88.9124","CLASSIFICATION_TYPE":"U","MEAN_ELEMENT_THEORY":"SGP4","OBJECT_NAME":"STARLINK-2186","LAUNCH_DATE":"2021-05-15"}];
